IRIDIUM 36              
1 24967U 97056C   24300.87213393  .00001615  00000+0  53699-3 0  9997
2 24967  86.3919 270.9675 0002526  84.8528 275.2957 14.37151808418707
IRIDIUM 39              
1 25042U 97069D   24300.77152030  .00001887  00000+0  49678-3 0  9998
2 25042  86.3878 311.2237 0018500  13.5448 346.6249 14.48504159415165
IRIDIUM 38              
1 25043U 97069E   24300.69751079  .00001153  00000+0  37786-3 0  9991
2 25043  86.3956 331.4178 0003712 116.3778 243.7801 14.37637878412406
IRIDIUM 42              
1 25077U 97077A   24300.62859134  .00001065  00000+0  36064-3 0  9991
2 25077  86.3973 337.3272 0002538 107.2063 252.9411 14.35910082407674
IRIDIUM 44              
1 25078U 97077B   24300.93329425  .00001373  00000+0  43225-3 0  9990
2 25078  86.3932 319.7450 0004067  83.3626 276.8036 14.39759456410133
IRIDIUM 45              
1 25104U 97082A   24300.87804272  .00033722  00000+0  15952-2 0  9995
2 25104  86.3683 160.1164 0145819 117.7718 243.8393 15.10192105416689
IRIDIUM 24              
1 25105U 97082B   24300.92626278  .00001303  00000+0  39415-3 0  9991
2 25105  86.3967 179.1445 0013020 122.0472 238.1994 14.41597180409604
IRIDIUM 51              
1 25262U 98018A   24300.67379028  .00039419  00000+0  14641-2 0  9997
2 25262  86.3961 169.6166 0128201  55.7679 305.5630 15.19912368411328
